UNKNOWN                 
1 81864U          25341.53968716  .00001421  00000+0  57685-3 0  9998
2 81864  65.6711  79.0167 0762831  15.3548 346.9300 13.32351453550148
UNKNOWN                 
1 81865U          25341.14775086  .00002329  00000+0  19150-2 0  9994
2 81865  82.8054  33.0042 0061590  22.1067   6.8865 13.87995543607772
UNKNOWN                 
1 81893U          25341.70631380  .00001726  00000+0  18052-2 0  9995
2 81893 100.0464 324.7364 0020239 283.5340  76.3553 13.76674846603387
UNKNOWN                 
1 81899U          25341.49453025  .00002381  00000+0  55382-2 0  9990
2 81899 102.4176  82.3586 0183501 224.4448 134.1810 13.20170406578299
UNKNOWN                 
1 81921U          25338.88405985  .00003525  00000+0  14422-2 0  9998
2 81921  65.7090  70.9668 0845489 117.9609 250.9601 13.15152121 24750
UNKNOWN                 
1 81946U          25329.59972784  .00000095  00000+0  48631-3 0  9998
2 81946  66.4167 185.6165 0670122 359.7992  25.5407 12.42570023545759
UNKNOWN                 
1 81947U          25341.27113692  .00009090  00000+0  86791-3 0  9996
2 81947  66.0725 183.4395 0377242 146.2267 216.3503 14.52538233630222
UNKNOWN                 
1 81964U          25342.51784323  .00000509  00000+0  42891-3 0  9997
2 81964  66.5849 269.2664 0028956  89.9180 270.5217 13.95791719613453
UNKNOWN                 
1 81969U          25342.51067382  .00013894  00000+0  83358-3 0  9995
2 81969  86.6856 155.2712 0003660 175.0483 185.0792 15.10836310439534
UNKNOWN                 
1 81995U          25341.15718739  .00006883  00000+0  12967-2 0  9999
2 81995  65.7447 138.6203 0520234 299.7729  55.2561 14.03687880603447
UNKNOWN                 
1 82043U          25340.36370747  .00005016  00000+0  13810-2 0  9994
2 82043  97.9277 129.5942 0232638 102.6968 260.0331 14.32515338572934
UNKNOWN                 
1 82051U          25340.98024424  .00009683  00000+0  32001-2 0  9996
2 82051  98.7481  66.3891 0092225 276.0868  82.9815 14.35789494571588
