CCSDS_OMM_VERS = 2.0
CREATION_DATE  = 
ORIGINATOR     = 

OBJECT_NAME    = UNKNOWN
OBJECT_ID      = 
CENTER_NAME    = EARTH
REF_FRAME      = TEME
TIME_SYSTEM    = UTC
MEAN_ELEMENT_THEORY = SGP/SGP4

EPOCH          = 2025-12-07T12:57:08.970624
MEAN_MOTION    = 13.32351453
ECCENTRICITY   = .0762831
INCLINATION    = 65.6711
RA_OF_ASC_NODE = 79.0167
ARG_OF_PERICENTER = 15.3548
MEAN_ANOMALY   = 346.9300

EPHEMERIS_TYPE = 0
CLASSIFICATION_TYPE = U
NORAD_CAT_ID   = 81864
ELEMENT_SET_NO = 999
REV_AT_EPOCH   = 55014
BSTAR          = .57685E-3
MEAN_MOTION_DOT = .1421E-4
MEAN_MOTION_DDOT = 0

CCSDS_OMM_VERS = 2.0
CREATION_DATE  = 
ORIGINATOR     = 

OBJECT_NAME    = UNKNOWN
OBJECT_ID      = 
CENTER_NAME    = EARTH
REF_FRAME      = TEME
TIME_SYSTEM    = UTC
MEAN_ELEMENT_THEORY = SGP/SGP4

EPOCH          = 2025-12-07T03:32:45.674304
MEAN_MOTION    = 13.87995543
ECCENTRICITY   = .006159
INCLINATION    = 82.8054
RA_OF_ASC_NODE = 33.0042
ARG_OF_PERICENTER = 22.1067
MEAN_ANOMALY   = 6.8865

EPHEMERIS_TYPE = 0
CLASSIFICATION_TYPE = U
NORAD_CAT_ID   = 81865
ELEMENT_SET_NO = 999
REV_AT_EPOCH   = 60777
BSTAR          = .1915E-2
MEAN_MOTION_DOT = .2329E-4
MEAN_MOTION_DDOT = 0

CCSDS_OMM_VERS = 2.0
CREATION_DATE  = 
ORIGINATOR     = 

OBJECT_NAME    = UNKNOWN
OBJECT_ID      = 
CENTER_NAME    = EARTH
REF_FRAME      = TEME
TIME_SYSTEM    = UTC
MEAN_ELEMENT_THEORY = SGP/SGP4

EPOCH          = 2025-12-07T16:57:05.512320
MEAN_MOTION    = 13.76674846
ECCENTRICITY   = .0020239
INCLINATION    = 100.0464
RA_OF_ASC_NODE = 324.7364
ARG_OF_PERICENTER = 283.5340
MEAN_ANOMALY   = 76.3553

EPHEMERIS_TYPE = 0
CLASSIFICATION_TYPE = U
NORAD_CAT_ID   = 81893
ELEMENT_SET_NO = 999
REV_AT_EPOCH   = 60338
BSTAR          = .18052E-2
MEAN_MOTION_DOT = .1726E-4
MEAN_MOTION_DDOT = 0

CCSDS_OMM_VERS = 2.0
CREATION_DATE  = 
ORIGINATOR     = 

OBJECT_NAME    = UNKNOWN
OBJECT_ID      = 
CENTER_NAME    = EARTH
REF_FRAME      = TEME
TIME_SYSTEM    = UTC
MEAN_ELEMENT_THEORY = SGP/SGP4

EPOCH          = 2025-12-07T11:52:07.413600
MEAN_MOTION    = 13.20170406
ECCENTRICITY   = .0183501
INCLINATION    = 102.4176
RA_OF_ASC_NODE = 82.3586
ARG_OF_PERICENTER = 224.4448
MEAN_ANOMALY   = 134.1810

EPHEMERIS_TYPE = 0
CLASSIFICATION_TYPE = U
NORAD_CAT_ID   = 81899
ELEMENT_SET_NO = 999
REV_AT_EPOCH   = 57829
BSTAR          = .55382E-2
MEAN_MOTION_DOT = .2381E-4
MEAN_MOTION_DDOT = 0

CCSDS_OMM_VERS = 2.0
CREATION_DATE  = 
ORIGINATOR     = 

OBJECT_NAME    = UNKNOWN
OBJECT_ID      = 
CENTER_NAME    = EARTH
REF_FRAME      = TEME
TIME_SYSTEM    = UTC
MEAN_ELEMENT_THEORY = SGP/SGP4

EPOCH          = 2025-12-04T21:13:02.771040
MEAN_MOTION    = 13.15152121
ECCENTRICITY   = .0845489
INCLINATION    = 65.7090
RA_OF_ASC_NODE = 70.9668
ARG_OF_PERICENTER = 117.9609
MEAN_ANOMALY   = 250.9601

EPHEMERIS_TYPE = 0
CLASSIFICATION_TYPE = U
NORAD_CAT_ID   = 81921
ELEMENT_SET_NO = 999
REV_AT_EPOCH   = 2475
BSTAR          = .14422E-2
MEAN_MOTION_DOT = .3525E-4
MEAN_MOTION_DDOT = 0

CCSDS_OMM_VERS = 2.0
CREATION_DATE  = 
ORIGINATOR     = 

OBJECT_NAME    = UNKNOWN
OBJECT_ID      = 
CENTER_NAME    = EARTH
REF_FRAME      = TEME
TIME_SYSTEM    = UTC
MEAN_ELEMENT_THEORY = SGP/SGP4

EPOCH          = 2025-11-25T14:23:36.485376
MEAN_MOTION    = 12.42570023
ECCENTRICITY   = .0670122
INCLINATION    = 66.4167
RA_OF_ASC_NODE = 185.6165
ARG_OF_PERICENTER = 359.7992
MEAN_ANOMALY   = 25.5407

EPHEMERIS_TYPE = 0
CLASSIFICATION_TYPE = U
NORAD_CAT_ID   = 81946
ELEMENT_SET_NO = 999
REV_AT_EPOCH   = 54575
BSTAR          = .48631E-3
MEAN_MOTION_DOT = .95E-6
MEAN_MOTION_DDOT = 0

CCSDS_OMM_VERS = 2.0
CREATION_DATE  = 
ORIGINATOR     = 

OBJECT_NAME    = UNKNOWN
OBJECT_ID      = 
CENTER_NAME    = EARTH
REF_FRAME      = TEME
TIME_SYSTEM    = UTC
MEAN_ELEMENT_THEORY = SGP/SGP4

EPOCH          = 2025-12-07T06:30:26.229888
MEAN_MOTION    = 14.52538233
ECCENTRICITY   = .0377242
INCLINATION    = 66.0725
RA_OF_ASC_NODE = 183.4395
ARG_OF_PERICENTER = 146.2267
MEAN_ANOMALY   = 216.3503

EPHEMERIS_TYPE = 0
CLASSIFICATION_TYPE = U
NORAD_CAT_ID   = 81947
ELEMENT_SET_NO = 999
REV_AT_EPOCH   = 63022
BSTAR          = .86791E-3
MEAN_MOTION_DOT = .909E-4
MEAN_MOTION_DDOT = 0

CCSDS_OMM_VERS = 2.0
CREATION_DATE  = 
ORIGINATOR     = 

OBJECT_NAME    = UNKNOWN
OBJECT_ID      = 
CENTER_NAME    = EARTH
REF_FRAME      = TEME
TIME_SYSTEM    = UTC
MEAN_ELEMENT_THEORY = SGP/SGP4

EPOCH          = 2025-12-08T12:25:41.655072
MEAN_MOTION    = 13.95791719
ECCENTRICITY   = .0028956
INCLINATION    = 66.5849
RA_OF_ASC_NODE = 269.2664
ARG_OF_PERICENTER = 89.9180
MEAN_ANOMALY   = 270.5217

EPHEMERIS_TYPE = 0
CLASSIFICATION_TYPE = U
NORAD_CAT_ID   = 81964
ELEMENT_SET_NO = 999
REV_AT_EPOCH   = 61345
BSTAR          = .42891E-3
MEAN_MOTION_DOT = .509E-5
MEAN_MOTION_DDOT = 0

CCSDS_OMM_VERS = 2.0
CREATION_DATE  = 
ORIGINATOR     = 

OBJECT_NAME    = UNKNOWN
OBJECT_ID      = 
CENTER_NAME    = EARTH
REF_FRAME      = TEME
TIME_SYSTEM    = UTC
MEAN_ELEMENT_THEORY = SGP/SGP4

EPOCH          = 2025-12-08T12:15:22.218048
MEAN_MOTION    = 15.10836310
ECCENTRICITY   = .000366
INCLINATION    = 86.6856
RA_OF_ASC_NODE = 155.2712
ARG_OF_PERICENTER = 175.0483
MEAN_ANOMALY   = 185.0792

EPHEMERIS_TYPE = 0
CLASSIFICATION_TYPE = U
NORAD_CAT_ID   = 81969
ELEMENT_SET_NO = 999
REV_AT_EPOCH   = 43953
BSTAR          = .83358E-3
MEAN_MOTION_DOT = .13894E-3
MEAN_MOTION_DDOT = 0

CCSDS_OMM_VERS = 2.0
CREATION_DATE  = 
ORIGINATOR     = 

OBJECT_NAME    = UNKNOWN
OBJECT_ID      = 
CENTER_NAME    = EARTH
REF_FRAME      = TEME
TIME_SYSTEM    = UTC
MEAN_ELEMENT_THEORY = SGP/SGP4

EPOCH          = 2025-12-07T03:46:20.990496
MEAN_MOTION    = 14.03687880
ECCENTRICITY   = .0520234
INCLINATION    = 65.7447
RA_OF_ASC_NODE = 138.6203
ARG_OF_PERICENTER = 299.7729
MEAN_ANOMALY   = 55.2561

EPHEMERIS_TYPE = 0
CLASSIFICATION_TYPE = U
NORAD_CAT_ID   = 81995
ELEMENT_SET_NO = 999
REV_AT_EPOCH   = 60344
BSTAR          = .12967E-2
MEAN_MOTION_DOT = .6883E-4
MEAN_MOTION_DDOT = 0

CCSDS_OMM_VERS = 2.0
CREATION_DATE  = 
ORIGINATOR     = 

OBJECT_NAME    = UNKNOWN
OBJECT_ID      = 
CENTER_NAME    = EARTH
REF_FRAME      = TEME
TIME_SYSTEM    = UTC
MEAN_ELEMENT_THEORY = SGP/SGP4

EPOCH          = 2025-12-06T08:43:44.325408
MEAN_MOTION    = 14.32515338
ECCENTRICITY   = .0232638
INCLINATION    = 97.9277
RA_OF_ASC_NODE = 129.5942
ARG_OF_PERICENTER = 102.6968
MEAN_ANOMALY   = 260.0331

EPHEMERIS_TYPE = 0
CLASSIFICATION_TYPE = U
NORAD_CAT_ID   = 82043
ELEMENT_SET_NO = 999
REV_AT_EPOCH   = 57293
BSTAR          = .1381E-2
MEAN_MOTION_DOT = .5016E-4
MEAN_MOTION_DDOT = 0

CCSDS_OMM_VERS = 2.0
CREATION_DATE  = 
ORIGINATOR     = 

OBJECT_NAME    = UNKNOWN
OBJECT_ID      = 
CENTER_NAME    = EARTH
REF_FRAME      = TEME
TIME_SYSTEM    = UTC
MEAN_ELEMENT_THEORY = SGP/SGP4

EPOCH          = 2025-12-06T23:31:33.102336
MEAN_MOTION    = 14.35789494
ECCENTRICITY   = .0092225
INCLINATION    = 98.7481
RA_OF_ASC_NODE = 66.3891
ARG_OF_PERICENTER = 276.0868
MEAN_ANOMALY   = 82.9815

EPHEMERIS_TYPE = 0
CLASSIFICATION_TYPE = U
NORAD_CAT_ID   = 82051
ELEMENT_SET_NO = 999
REV_AT_EPOCH   = 57158
BSTAR          = .32001E-2
MEAN_MOTION_DOT = .9683E-4
MEAN_MOTION_DDOT = 0

